{"type":"FeatureCollection","features":[{"type":"Feature","id":19,"properties":{"OBJECTID":19,"KDPKAB":"11.08","WADMKK":"Aceh Utara","WADMPR":"Aceh","ID_KAB":1111,"area_km2":2627.11},"geometry":{"type":"Polygon","coordinates":[[[96.97707650817438,5.2626645664166745],[96.95416431942783,5.260289319296703],[96.9157817410346,5.250700193659043],[96.91276255684659,5.25079607487902],[96.91290329984747,5.25400190076715],[96.91271478935613,5.250809788640879],[96.90978456160832,5.252065328552135],[96.91247872541288,5.255101838179314],[96.90939717593898,5.251351631072964],[96.90543748705045,5.250484768257479],[96.91223025891935,5.248498226112304],[96.91323828202115,5.246721733221477],[96.9068683300095,5.246155368075847],[96.9059729119204,5.243956675859977],[96.90642976841912,5.242805018436911],[96.9101478220644,5.2428588437607],[96.9081544019042,5.236340496416801],[96.91160957022555,5.235284118567279],[96.91463656592481,5.225972009300847],[96.913120744227,5.222985008251555],[96.90970339509568,5.2252276098663515],[96.90816485562362,5.221427242173547],[96.91078300063504,5.222746619560894],[96.91482353857549,5.221010361439085],[96.91611571866554,5.2227153968980815],[96.9171505325711,5.222157615781384],[96.9161198699361,5.218143586257554],[96.9115741477288,5.217121369155905],[96.91085459836108,5.2153339180259195],[96.91283015708615,5.21460233303128],[96.9169251453792,5.217393146076859],[96.91630361761793,5.213007821553788],[96.91848113529619,5.212726365229628],[96.92179362887293,5.2099599382006545],[96.92446214940873,5.213088043778271],[96.9251552838893,5.210734322830774],[96.92252766631879,5.208302520944642],[96.91648440023494,5.206713085240722],[96.91576537876927,5.204243558593419],[96.91674330605878,5.203083989834283],[96.91022893641633,5.203258518565804],[96.91046853469516,5.201151273012897],[96.90809909179973,5.198698156294938],[96.90632921162387,5.192915431901724],[96.90664638362375,5.18992874921247],[96.9038551362056,5.18624558656461],[96.90286202925932,5.182556797758082],[96.89465696025059,5.183626667236979],[96.89341130388863,5.187398265617503],[96.89075510316553,5.188100670309723],[96.8876201627404,5.1858746845690575],[96.88708199763613,5.181956502990261],[96.88137224243508,5.182742042811071],[96.88225667620469,5.170676317358186],[96.89106496637515,5.161293962946104],[96.89020056860141,5.157857412389717],[96.89210852708692,5.150253388183387],[96.88964394401285,5.14747953005633],[96.88374918477712,5.146359103389955],[96.88129664722254,5.143581930361847],[96.88079778968631,5.139021400817057],[96.87666756775411,5.136534519052873],[96.87706218397267,5.126788396967015],[96.87604982344067,5.123732658035806],[96.87393594898492,5.123252412868624],[96.87447023441382,5.119000092680153],[96.87309322397317,5.1148992740822905],[96.86925965960569,5.113454590556955],[96.8660179282848,5.110371589577255],[96.85100990798094,5.091718455142654],[96.84823316932534,5.091129318263484],[96.84939560422379,5.089890172093817],[96.84684228774142,5.0877015019228224],[96.84841102105185,5.0847630957403],[96.84635311590364,5.085518149443089],[96.84418698723971,5.083869640871285],[96.83963239591839,5.083083783589814],[96.8356353473934,5.079293828247614],[96.83504736344514,5.074253041844429],[96.83667138887358,5.071256820046244],[96.83516097569856,5.068196999991585],[96.83624220001758,5.061586875933642],[96.8322126796715,5.0543116339747485],[96.82777856602809,5.052617041443341],[96.82502916496406,5.053310681342907],[96.8262727573819,5.0487758643147345],[96.82259125488258,5.04498395384644],[96.82173274497029,5.038860174157776],[96.81888500573848,5.033332212411722],[96.8202022760143,5.029509843704375],[96.81855759405778,5.023844569871073],[96.82086852526231,5.020745559160275],[96.82096370321239,5.0170488293400695],[96.81866038476898,5.0136376342694575],[96.81912104899726,5.006809533433284],[96.82183173064993,5.002721934869442],[96.82102969366548,5.001513486158501],[96.82256777808055,4.997135278870076],[96.82273643423912,4.988212870127882],[96.82182272124163,4.9864139994065795],[96.8191577314442,4.987498677122289],[96.82089378631923,4.985134444898733],[96.8198544362333,4.983569710873496],[96.81953602676629,4.98482013903822],[96.81456632277764,4.985145866288747],[96.8097693290913,4.9879897986903075],[96.81079725688795,4.984871752929109],[96.81182518378529,4.98478038180923],[96.81148254208568,4.983318440293829],[96.80968176480167,4.983345090803368],[96.80912164005173,4.980307471412743],[96.80506739734255,4.976807945830103],[96.8070613858743,4.9719586044060975],[96.80563370942821,4.972385716727501],[96.80533161276378,4.960436443587071],[96.80926248197801,4.9503813171440925],[96.80694393531445,4.9507068285573155],[96.80734368486321,4.94893651041167],[96.80499087402967,4.9448590642944055],[96.80316915872976,4.944693455038987],[96.80288171921603,4.946600829864451],[96.80040707992288,4.9447924398193095],[96.80203463159302,4.940328571206635],[96.80023575907308,4.938539216211893],[96.7966589529484,4.9384421343970075],[96.79018681906649,4.94243962808639],[96.78523768976765,4.9410915524332495],[96.78763223004341,4.940766391755631],[96.78933325092885,4.936810108599673],[96.79166753482895,4.935311036774976],[96.79677867429643,4.935494133347618],[96.79925575434964,4.932302346775941],[96.80438164629601,4.930158685874687],[96.80460638058008,4.928098566595622],[96.80976347270615,4.920913370155972],[96.8118597078593,4.920629804921589],[96.81475694487716,4.917900501007352],[96.82085946729063,4.916429466446743],[96.82429580740563,4.91334920030539],[96.82404041703165,4.911615473775157],[96.83213083057342,4.908027847906908],[96.83362591840148,4.90552473517846],[96.83250975632023,4.899477973429782],[96.83446940423966,4.89835142777622],[96.83448020959406,4.895640853142879],[96.83792861141632,4.890919916920666],[96.83754824135832,4.882427360734141],[96.83983343666381,4.881026302421958],[96.84138607031093,4.877503725416659],[96.84052173908702,4.874059970391386],[96.84325605672171,4.8701800477710435],[96.84692084981742,4.869051491233392],[96.85020226102557,4.870076593360125],[96.85118312460156,4.868452429436104],[96.85626559727956,4.871744615421733],[96.8587813508787,4.870311557432501],[96.86455416744093,4.870317758258011],[96.86681412866915,4.877089469803252],[96.87274885197797,4.884651266342928],[96.87532875691664,4.88526775340415],[96.87782347087654,4.896215912034734],[96.88145387479653,4.902052676689721],[96.881809297661,4.900482869588814],[96.88249888521545,4.901844756130629],[96.89119796621321,4.902887216072202],[96.89193397857031,4.902085353556288],[96.89285297508479,4.903230972031793],[96.89757540957754,4.898732310447826],[96.90527036693396,4.89768963556827],[96.90385422159511,4.894274777558962],[96.90421979330887,4.888417645957645],[96.89419657571148,4.885236269038614],[96.8847204004262,4.8798833135641075],[96.88669216221359,4.877375729406424],[96.8861227249838,4.8743772143370165],[96.88844427898033,4.874322438429829],[96.89062669076924,4.876579635142093],[96.89355273397155,4.872764427736172],[96.89763542763296,4.87514354014229],[96.90686340442261,4.872100909729227],[96.90978057671231,4.874095112299642],[96.91078737943405,4.872883962025298],[96.9147379968611,4.874520538392176],[96.92058519095389,4.877850432951163],[96.92319963165772,4.87718064037432],[96.92328428124466,4.872761826896863],[96.92652824738076,4.867418912352946],[96.93297439805008,4.86900033419812],[96.93457332789683,4.870526968444892],[96.93767344567306,4.86649614408185],[96.94565097900954,4.863361925812285],[96.95017173783549,4.8632134036756725],[96.95595359798023,4.866255174336857],[96.95759929706998,4.8660025044121085],[96.95778652332945,4.868177421251062],[96.96419150393484,4.870854886443908],[96.96426910823283,4.876845572765035],[96.96937120681582,4.8796830093634185],[96.96913674726312,4.885005289862306],[96.98075390976516,4.889789329713835],[96.98423795441812,4.898357298550536],[96.99213503440438,4.889713562730776],[96.99418087244936,4.885021056776395],[96.99987064831186,4.880183725798361],[97.00253899258053,4.879997331411744],[97.00515735342918,4.881178555845736],[97.0122170575712,4.88886740140947],[97.01915509333293,4.889454722557446],[97.02858602822266,4.897071374144673],[97.04330014108871,4.893893131362972],[97.04783956534374,4.889101314174354],[97.0546193995657,4.885896439768942],[97.05776999269108,4.890231198111337],[97.0601771882267,4.890817038975229],[97.06266384785835,4.889045325981044],[97.06561588236713,4.8909457319600165],[97.07118405190255,4.891278053039741],[97.07372664486883,4.893238369155483],[97.07370422656885,4.898213511344522],[97.07696818733206,4.898469515955469],[97.07761135637907,4.899545398301541],[97.07656021887908,4.900876802322614],[97.07976610682044,4.902941535123773],[97.082399295691,4.901530272204354],[97.08358754472948,4.905333166992136],[97.0871638472338,4.9026021804463085],[97.09319089044732,4.9058236185651936],[97.0985658577282,4.903899062192011],[97.1014877676464,4.897992731379475],[97.10286525922442,4.899683978432904],[97.10564824457089,4.900312416584825],[97.10498295939612,4.902104785207712],[97.10607898205944,4.9030232511221925],[97.10927351875796,4.902549666334096],[97.1109608267808,4.900403489129758],[97.11279127359848,4.900677902862981],[97.11455464268266,4.902204459768029],[97.11433815967837,4.907357023807663],[97.11972470842863,4.908411669562952],[97.1217821063592,4.910085564197459],[97.12568664881985,4.9086180360935145],[97.13010293340369,4.910170884678621],[97.13189670406967,4.912465854715492],[97.13529277344281,4.910625568415298],[97.13876208360335,4.91196423715985],[97.14179982260379,4.909593232142015],[97.14427700068308,4.909378081033651],[97.14604825142573,4.911546138743347],[97.14474775800267,4.91653387593766],[97.14583816979575,4.917274889424675],[97.1479976227921,4.915769064590734],[97.1487778134454,4.916828247425713],[97.15261088588375,4.912776143304427],[97.15436232186374,4.9125899197890135],[97.1545470552025,4.910478706427227],[97.15692562441808,4.9085738766831355],[97.15787592003772,4.903963575058981],[97.16434991821421,4.898503503134236],[97.17051368985494,4.900240039146524],[97.17720875038356,4.89880941742075],[97.17948732577952,4.892136930774768],[97.184188268274,4.888921040573621],[97.18420847244312,4.884644442287254],[97.18704582000862,4.880918785773417],[97.19215718970258,4.879925668035185],[97.20059174681171,4.88598237718503],[97.20583970194076,4.886571959228604],[97.20960041222929,4.884878540312457],[97.21311319921483,4.886413988814581],[97.2139435693403,4.888368555564455],[97.21555137909291,4.886514024902397],[97.21889271392769,4.8871690119403866],[97.22030252534131,4.889484170857827],[97.21998814483709,4.887915460030513],[97.22254375009408,4.885007123579953],[97.22356908244728,4.886207917261629],[97.22648583205557,4.884956898242308],[97.22817522380757,4.886809584394825],[97.2284040149334,4.883145603386936],[97.23070587197844,4.880607584372569],[97.23509256167245,4.880693312246592],[97.2337544172326,4.876979366704461],[97.23649828656676,4.878489412956071],[97.23590775304041,4.876845259800973],[97.23757332894604,4.8747528188875435],[97.24047218474357,4.875855473151603],[97.24040259340501,4.873784329982868],[97.24949403871898,4.873802096989209],[97.25242382130239,4.870221589254982],[97.25723660708383,4.871380497911673],[97.2598967486361,4.868859775558235],[97.26098576378206,4.858440100830023],[97.26860586966524,4.84722827716331],[97.26799465263116,4.838173354216963],[97.27108653981202,4.833647211149923],[97.27265933266216,4.834788125271814],[97.2757228893999,4.833836341274207],[97.27741825534827,4.835026070596712],[97.2781023498436,4.8317543118120625],[97.28054129774273,4.833300962269618],[97.28399151619556,4.832230204260554],[97.28705507203398,4.834341976101371],[97.28738224809234,4.8374352752178424],[97.28919658715284,4.833747111440061],[97.29407448205177,4.833925570208919],[97.29514524006083,4.834817867650543],[97.29377705017077,4.837137843336848],[97.29505601022674,4.839457817224513],[97.29981493201353,4.843145981901614],[97.29829802573335,4.844008536065132],[97.29886314801593,4.846923376412747],[97.30329489374441,4.8455254432446395],[97.30487128658069,4.846506969620975],[97.30442513830957,4.84418699573331],[97.30793484331844,4.845971592415083],[97.31010610081597,4.8443357121234385],[97.31007635843724,4.848529511627703],[97.31162300709616,4.848945918419474],[97.31183121004239,4.847012606246835],[97.31284248059609,4.84731003902715],[97.31284248059609,4.849332580134501],[97.3110281424349,4.8509387171481535],[97.31212864282264,4.854864827150095],[97.31486502260276,4.855638152378901],[97.31694705116553,4.853020744811545],[97.31843421416772,4.853258691035819],[97.31938599906465,4.855757124591662],[97.31545988816339,4.858731450595997],[97.32197366335396,4.859980668273295],[97.32369877168105,4.8591181141097195],[97.32542388090746,4.865037022840397],[97.32682181407552,4.864501643835865],[97.3258997733559,4.860664762768636],[97.32756539602627,4.858493505271099],[97.33229457543439,4.859831951883109],[97.33372225098117,4.856292503596194],[97.33526890143872,4.85974272204902],[97.33428737326375,4.861229885051216],[97.3320268850328,4.8615868052868905],[97.33205662921011,4.86369857622833],[97.33553659004167,4.862508846006506],[97.33752938877035,4.85905862665436],[97.33919501233999,4.8610514262823585],[97.34182527121936,4.8581677807185315],[97.33731524130542,4.853834306608007],[97.33763884795451,4.850246079992644],[97.33632538540826,4.850274632568301],[97.3366585095826,4.851654721388343],[97.3352403506617,4.850969436190553],[97.33534504703636,4.8484281724222456],[97.33688693828162,4.84798083344873],[97.33606840323426,4.846524602628335],[97.33534504703636,4.847752404749713],[97.3343076017145,4.8466197805784645],[97.33591611833424,4.843954785385108],[97.33470735216264,4.842555662413929],[97.33679176033155,4.841242198968359],[97.33422194218895,4.8411375025937105],[97.33497385096251,4.840328485970872],[97.33366990684078,4.839909701371653],[97.33623020655887,4.837530240028627],[97.33631586698374,4.8357884753579015],[97.33795293707846,4.8371590439547845],[97.33620165308389,4.83499849378552],[97.3378672757542,4.8320955505692496],[97.3368774198571,4.832428675642916],[97.33733427725514,4.83139123122038],[97.33628731440808,4.830943892246864],[97.33742945520527,4.830782088922319],[97.33737234825531,4.828012395555675],[97.33817184735295,4.82905935930205],[97.33978036307337,4.828554913378582],[97.33863822137687,4.826575201584319],[97.33916170325006,4.824052972866468],[97.34238063765639,4.821039624379182],[97.34067408773899,4.817116367926076],[97.34062649921361,4.811001154279893],[97.34184002369818,4.808193389913072],[97.33969850857937,4.806860891417045],[97.34031177606767,4.803780600094683],[97.3383320642734,4.801439209751777],[97.34166330871477,4.797498823012347],[97.34210113016309,4.794415041421075],[97.34071152471716,4.7921117229776655],[97.34183463136321,4.790588867682118],[97.34044502501797,4.788418799987653],[97.34215823711304,4.784497448298623],[97.34177752441326,4.781318487857959],[97.34297677216034,4.781870523206123],[97.34650163794032,4.779173663234019],[97.35006187225764,4.779312531148435],[97.35451622334512,4.771945721118186],[97.35600100764043,4.7725548634162465],[97.36043632277813,4.783481346586939],[97.36417859876337,4.783969075912182],[97.3657475164348,4.782234098424965],[97.36598253266783,4.778951491118448],[97.3608611256405,4.770137844585918],[97.36212732521597,4.767729315355666],[97.36537378157482,4.767664383404622],[97.36896875130691,4.769762326370312],[97.38686212408783,4.769470820122308],[97.38790018724393,4.767976681978325],[97.38689870041475,4.762770285420402],[97.38773723278712,4.761145238362133],[97.39403715638974,4.759616699351227],[97.39966413529169,4.760311723307439],[97.40220036465519,4.756788408858029],[97.40443188842096,4.756111669018367],[97.40655380641311,4.7564276314300855],[97.41106917020608,4.760058338421629],[97.41524851580641,4.76016535324851],[97.42417779357038,4.7554228737666335],[97.42420653230567,4.759220827679087],[97.42200859372167,4.765760283010707],[97.41764876407927,4.768936612035077],[97.41430312508919,4.768763425991381],[97.40981386771585,4.763321634585793],[97.40294383958661,4.763979764754367],[97.40031977074091,4.76664936627526],[97.40287273109175,4.7858791001403915],[97.40583950638819,4.795084608268098],[97.40807371642893,4.796630040144294],[97.41252921055468,4.796541488399043],[97.41547898686582,4.794565537569554],[97.41915193141654,4.788954395728808],[97.41878534436819,4.78760167237931],[97.41247554261224,4.788113452274047],[97.40868583908025,4.78698008256481],[97.40719002460003,4.783823246345776],[97.41139544424442,4.78071752579325],[97.41995400167588,4.7824241719380325],[97.42556127823048,4.7860860314452225],[97.43515901127938,4.787656234247834],[97.43663618101499,4.78962071782189],[97.436560037216,4.793762885448871],[97.43275290032614,4.798438048876903],[97.42874779207699,4.807666550870692],[97.4350535244007,4.808749240185307],[97.43756840655675,4.812027060400567],[97.43527954021869,4.819439226838881],[97.43584429557785,4.821570217191834],[97.45261515976188,4.819096077921699],[97.45548240708746,4.819818030277929],[97.45703529973935,4.822173566057302],[97.4499385875958,4.828431213429781],[97.44167203733474,4.829099784727305],[97.4427844897125,4.832882844967344],[97.45250869442077,4.836338692276854],[97.45910473959214,4.846606635188095],[97.46131306174846,4.845786169296332],[97.4619072357304,4.841468614984649],[97.46409327538441,4.839942221756189],[97.4656904290701,4.840400466808148],[97.46741258222494,4.843610656206863],[97.46966974656164,4.843340600588306],[97.47019835457047,4.841212565407602],[97.46767477866814,4.839034233842881],[97.46807809762618,4.837886625167641],[97.4713223056799,4.83782696144516],[97.47363511736683,4.844646757042256],[97.47473382540579,4.839748862120359],[97.47701513923732,4.839342444997897],[97.48509788426003,4.847409865572899],[97.48859451042836,4.854012184414842],[97.48937719939829,4.858177364793619],[97.48809837424062,4.866836341424062],[97.49035631379292,4.868401495432693],[97.49482374102291,4.8675883868945675],[97.49769113763597,4.871308947849684],[97.50126319983684,4.871561058396196],[97.50190106827972,4.876219730056562],[97.50587198880129,4.876659276404553],[97.50787916139421,4.880552026954547],[97.51164320996622,4.88286943327779],[97.50895384674271,4.885411787923715],[97.50641321429845,4.885418097567197],[97.50265825607374,4.879009016053317],[97.49712720425714,4.875249334589171],[97.49541399306139,4.881645325571355],[97.50013960306029,4.884729108961267],[97.50179044087622,4.8884466257112535],[97.50659905200473,4.887679700957506],[97.50600735385638,4.891796108403753],[97.50161010971885,4.892724098138672],[97.49579946587272,4.886999113818092],[97.49274423775643,4.886599364269273],[97.49281562234313,4.889725976972329],[97.4987519005798,4.89552392958575],[97.4983521519303,4.8996546740240206],[97.49217936728405,4.900947140098481],[97.49066294034247,4.906959151143951],[97.4880732435854,4.906479522911695],[97.48330602555268,4.902115036579744],[97.4839078959327,4.906513148563022],[97.4879935645514,4.910240896000573],[97.4855546175516,4.911466319415183],[97.4789873048203,4.911549599334592],[97.47729788788729,4.915689863096759],[97.4739071559905,4.913500758553198],[97.47360972321025,4.918878339263983],[97.475346729568,4.919485102855276],[97.47911817506377,4.917962247559728],[97.47986770602989,4.919485102855276],[97.47836864499703,4.921138826595609],[97.47066673408256,4.919547376410321],[97.46740191806413,4.913840345255778],[97.46547043960913,4.916791784413363],[97.46741208040322,4.920046886854379],[97.47357636735552,4.924105067694768],[97.46737679820075,4.9308188709941305],[97.47268725621194,4.937797208074755],[97.47360713855863,4.943298637122439],[97.47208418343837,4.948070830204699],[97.47543981569498,4.9480273174067975],[97.47618160259896,4.9428893862362315],[97.47783404300674,4.941046159152961],[97.48303510568564,4.94543258444628],[97.48495128937054,4.945106046007254],[97.4861459038105,4.942237458691807],[97.48773564438454,4.941867813948477],[97.49210384041999,4.948002207435991],[97.49712315640858,4.947854563937028],[97.49901794342338,4.956099194122544],[97.5052384640839,4.958995315981099],[97.50491485743476,4.960708528076168],[97.50249908956141,4.961319002270159],[97.49579491530318,4.957163923975941],[97.49030316925592,4.960090252263399],[97.48571200790292,4.959538552362346],[97.48408961744195,4.961319653379348],[97.48681936292331,4.963851480561402],[97.4923787865518,4.963481215285924],[97.49460639107213,4.96824948012943],[97.49620532001956,4.967784365156376],[97.49796419788947,4.963885633215455],[97.50000000399706,4.964437563342926],[97.50145286685637,4.966680229708857],[97.49885092133303,4.971714148888907],[97.49928454924259,4.976898026422816],[97.49686758077428,4.977983621447038],[97.4925006707694,4.976222123851983],[97.49067179236937,4.978888262982991],[97.4921408412269,4.981065431724346],[97.49811328839758,4.983397302743356],[97.49823226240903,4.986014710310656],[97.49651904941464,4.988941446890294],[97.49724727184417,4.991964552122454],[97.49912704557676,4.9928330553013325],[97.50226400587923,4.991855088441639],[97.50709823959215,4.994462985678297],[97.5078625572113,4.997037001856199],[97.5064283660763,4.9988060654476385],[97.50267634144006,4.99993097343571],[97.50157875665434,5.0018383851333965],[97.50525250340036,5.005372298093107],[97.50441555563344,5.0114360894040715],[97.50117880206011,5.013067732090235],[97.49479272880143,5.010945752044847],[97.49321430709466,5.014418588447143],[97.49458940827463,5.016508617378861],[97.50263245272555,5.017354638405891],[97.50661664364327,5.022807340386521],[97.50666198925944,5.029088497835971],[97.51336617700753,5.0293909623230775],[97.51455500520939,5.031248088428583],[97.50801189233505,5.04433880359295],[97.50511846844262,5.04431977034119],[97.50291105999747,5.038088232086295],[97.49963618955854,5.038647135556914],[97.49995979620769,5.043196664594461],[97.50507432791795,5.045622257561206],[97.505799798422,5.047171937834719],[97.5043530869255,5.049056470779533],[97.49829491637735,5.049685051024312],[97.49755268340965,5.050784008175469],[97.5057620970432,5.055049439580046],[97.50862206255817,5.053943381381998],[97.51154679544828,5.050594218848175],[97.51404620476859,5.050772867373951],[97.51397716921105,5.053074663265136],[97.50625629339328,5.061252393782979],[97.51000644294305,5.065536837754905],[97.51312851227107,5.0658877559152415],[97.51453876525187,5.0635206026937],[97.51324069640106,5.058560103266188],[97.51523218391822,5.056909510065907],[97.51493585190809,5.059598920054157],[97.51677225943229,5.063561811428485],[97.51524116185021,5.072662550336474],[97.51086096256341,5.07208525842799],[97.51187406143885,5.076365330795454],[97.50971783341134,5.074982034992956],[97.50708332703397,5.06627950689375],[97.50379166895044,5.0691331681612155],[97.49823185861345,5.068650758325873],[97.50120849677478,5.076780073841405],[97.50033961857861,5.078452997208103],[97.49647713471205,5.073595578972856],[97.49166221843672,5.071880552045911],[97.49108004141084,5.075124223204398],[97.49459811641003,5.077551374696213],[97.49711121700909,5.0818487823954115],[97.49527780692529,5.085973406047913],[97.49153634302786,5.086933597807331],[97.48813668805775,5.082258353440295],[97.48810638809937,5.078824106047705],[97.48431675921114,5.078438357144535],[97.48159195640375,5.08189187341128],[97.48114379275188,5.085264593686077],[97.47730702230132,5.086651708909301],[97.48116064155045,5.090289414425001],[97.47730632442739,5.092668776842629],[97.47661142008104,5.094789237933014],[97.48053081394596,5.095674349791466],[97.48184383132781,5.097469142087277],[97.47522139195371,5.099896940191684],[97.47573847874787,5.0952966003578695],[97.47129192658122,5.095536649197072],[97.46948071266479,5.093129555284804],[97.46817996203566,5.093229345857651],[97.46763288105268,5.096515662867603],[97.4726511286467,5.101617637344134],[97.47267857055965,5.103515059372512],[97.46628376938054,5.105635753387332],[97.46818733827507,5.109671914327407],[97.46325615404834,5.109246587160328],[97.45960046209171,5.112010907977094],[97.46372545086894,5.118422153259814],[97.46819775961899,5.116959035431194],[97.46960481820787,5.118361038930857],[97.47008157670348,5.124517792262338],[97.47651068521998,5.124240476416901],[97.47813564144673,5.126605400219091],[97.4777010125917,5.129111487005559],[97.47321321931469,5.131771869576141],[97.4697851457679,5.130855876797341],[97.46850781438417,5.131972327560902],[97.46995505108481,5.139792717859677],[97.46729957161801,5.145793719404651],[97.4699360133364,5.150224276229437],[97.46578441991511,5.153540411161089],[97.46848223406789,5.154085278013213],[97.47559925739989,5.149443296870686],[97.47874093824379,5.1514324200701935],[97.48125990242261,5.148911695918059],[97.48310592280018,5.152267071867925],[97.48691177725675,5.1506479378521135],[97.48839288602295,5.154061132115601],[97.48706641298463,5.160934749439207],[97.4890057919838,5.161305456281809],[97.49088419694817,5.157182418134141],[97.49323559404746,5.158596011197005],[97.49835033709843,5.15856923298378],[97.49651851072076,5.163022083102703],[97.49881411657827,5.1652051190210955],[97.49732015290277,5.167669145414777],[97.50017238694613,5.16850406521047],[97.4991146825966,5.171868141201799],[97.49629190584682,5.171301487373796],[97.494024503628,5.174432772954162],[97.48947011735208,5.172903452432422],[97.48822957723326,5.1686987018836135],[97.48711946489146,5.169083044247145],[97.4872873287473,5.172517876199095],[97.49097213985243,5.178974780062106],[97.48769408491415,5.178668396329499],[97.48546375724663,5.181050595208831],[97.48774041528799,5.185342827309682],[97.48947914294814,5.181780501169214],[97.4905569417495,5.182634818442182],[97.48727278221321,5.188019958854056],[97.49164560256258,5.189099306288028],[97.4920958742253,5.185069331784291],[97.49715028355882,5.188570320563883],[97.5003129806596,5.187730253048812],[97.50111321540265,5.188897843760515],[97.49787966431512,5.1938709381932995],[97.50061150341821,5.195682567596464],[97.49816382579996,5.197355226562479],[97.49645820038569,5.202697588023341],[97.49409777499238,5.202102721563392],[97.49235315857146,5.197632221349977],[97.48744274598602,5.199697755447119],[97.49087236636666,5.202722755550781],[97.4901841808553,5.20626774186286],[97.48790874499264,5.2092407764407085],[97.49040687367835,5.208963473185804],[97.49305557135762,5.205514869016042],[97.49427539289513,5.206668036400799],[97.49336582757093,5.210169621430907],[97.48949763031146,5.21190271124118],[97.48923132036919,5.213509517350417],[97.491652473383,5.21443801610161],[97.49508853201019,5.2115902561854455],[97.49951998276106,5.213397970839708],[97.49535613877487,5.217276644301762],[97.49706766733902,5.221438607805567],[97.4934306372142,5.218864857826986],[97.48831966681922,5.224354605580629],[97.48798046232855,5.230952562710627],[97.48376588129042,5.239301625769485],[97.48352332334275,5.243070385889666],[97.47875101334864,5.243016292567916],[97.46454536277832,5.2370374593113524],[97.46197555902489,5.234711174880886],[97.45921720970654,5.234726308672236],[97.3974282156397,5.213181513915799],[97.36737670666975,5.200351682184419],[97.36589500525037,5.201608965881121],[97.36560763498443,5.199262312705628],[97.33575162873473,5.190230225344692],[97.33390434121242,5.189794516403879],[97.33410304282125,5.191470317601102],[97.32748108998038,5.189645945703887],[97.30662443576915,5.180944551649759],[97.3044583961381,5.18306413680051],[97.30528410957407,5.181760202571354],[97.30422647357295,5.180776298387514],[97.2881324193757,5.171847401036757],[97.28131631009967,5.169561288422756],[97.27629706425819,5.1695254702243005],[97.27032038128061,5.165217329116501],[97.26920937501268,5.167686872850936],[97.26744366679185,5.168052780911182],[97.2523161139975,5.159115554938978],[97.2415755251904,5.154458070383669],[97.23348119420183,5.153953065081964],[97.22751619521631,5.1507646095990935],[97.2266086929369,5.1513831821881695],[97.22699388426042,5.155505533253802],[97.22750992694165,5.1531342557413495],[97.22487481442118,5.1515376335549945],[97.20213552393534,5.14182701760285],[97.20082025375177,5.142603004824878],[97.18738708394682,5.141108977297506],[97.17712301891225,5.141986190410421],[97.1768228917631,5.139442381560684],[97.17886871901624,5.138357393578872],[97.18047621940207,5.135172907703577],[97.1778624765721,5.129585562823536],[97.17894585566677,5.126104073144518],[97.17750458057202,5.122026097326568],[97.17859401660064,5.119851863972372],[97.17495092144793,5.120139359244092],[97.17659661424238,5.11800426258668],[97.17638658567245,5.115289762412658],[97.17810058557365,5.115591064076398],[97.17840481273197,5.109027558175342],[97.16744870679247,5.109591471769079],[97.16639764933211,5.104278875169996],[97.17336186166062,5.090554191023159],[97.17562331936074,5.0907496595691555],[97.1796000845763,5.084124212862207],[97.17383356956367,5.082392007984822],[97.16137810221772,5.083111534869488],[97.1551163764197,5.079802167336197],[97.1470923382409,5.0843068184049685],[97.14932732529587,5.086889036399953],[97.14914217197372,5.089911414080518],[97.14233152697847,5.095569086843909],[97.13867870835577,5.085088848171836],[97.13559207141702,5.087583520762905],[97.1355198639506,5.091525664777635],[97.13198984235737,5.091025650713277],[97.13012092434127,5.095220095930756],[97.11703282170743,5.103756155022609],[97.10077156195808,5.107763043929367],[97.10173582944503,5.110288371711022],[97.10089198657596,5.114353946777271],[97.10520122755469,5.119552084860857],[97.10872912225125,5.128647653566418],[97.08719442957931,5.149239368402164],[97.0879424964491,5.1565415684386835],[97.07916113827599,5.158586040413468],[97.0746878816405,5.158262297067381],[97.07492879023152,5.162411275260183],[97.06894673470413,5.165084442593013],[97.0667252698554,5.164439133159533],[97.06472946289443,5.161090234127073],[97.06155690562673,5.1635591384435315],[97.05690267931527,5.1700617269671625],[97.06062857504878,5.178372431242735],[97.05543509905061,5.184749030143678],[97.05438189041195,5.1835222388602915],[97.05320167771532,5.184283665159057],[97.05460316860143,5.187693652440146],[97.05333183659502,5.192026706567276],[97.04606039157386,5.198020202370515],[97.02831703020684,5.196092153929783],[97.02655678896468,5.197233096830018],[97.02678027229177,5.19886990971861],[97.03049889430861,5.201826758298296],[97.03117801375441,5.204668964900861],[97.0261045837596,5.208719854937385],[97.02765273608497,5.210545040721115],[97.03501241359209,5.212171854947201],[97.03865351944444,5.215640331436191],[97.03490396794382,5.219340031717138],[97.03781617597582,5.223617567097108],[97.03672354555522,5.2292004594336845],[97.0400129112669,5.232307083804926],[97.04603128861316,5.24257157601744],[97.03600972396964,5.246871214035366],[97.03651159693271,5.249422540318051],[97.03495890662828,5.246555051074779],[97.04037799374947,5.244002067341569],[97.0381494458403,5.2408622462957055],[97.04111491981774,5.24015668228509],[97.04037556737859,5.237931326069884],[97.03886450759103,5.237707296854296],[97.0329926307054,5.239633343404137],[97.03341020391781,5.241518627282858],[97.02874695380893,5.244318118786225],[97.02983930723832,5.247764254316905],[97.03261800911389,5.246867536707498],[97.03303257679204,5.250468641614589],[97.02452180573681,5.252344729026049],[97.02264209405746,5.254058865624188],[97.02191864522933,5.253399293842392],[97.0219499398379,5.254425774629851],[96.99614802880853,5.260095769903899],[96.97707650817438,5.2626645664166745]]]}}]}